TRANSPORTER-12 OBJECT BT
1 62674U 25009BT  26068.71416991  .00013824  00000+0  51029-3 0  9998
2 62674  97.4094 151.5992 0003682 313.5044  46.5889 15.27872239121360
STARLINK-33959          
1 63817U 25092P   26068.32390745  .00029843  00000+0  10891-2 0  9994
2 63817  42.9947 174.1840 0002351 286.5649  73.4944 15.27594780 48616
